[{"OBJECT_NAME":"STARLINK-30053","OBJECT_ID":"2023-067N","EPOCH":"2026-03-09T21:54:52.196832","MEAN_MOTION":15.27575762,"ECCENTRICITY":0.00014499,"INCLINATION":43.0001,"RA_OF_ASC_NODE":269.8467,"ARG_OF_PERICENTER":267.8303,"MEAN_ANOMALY":92.2383,"EPHEMERIS_TYPE":0,"CLASSIFICATION_TYPE":"U","NORAD_CAT_ID":56700,"ELEMENT_SET_NO":999,"REV_AT_EPOCH":15573,"BSTAR":9.1684946e-5,"MEAN_MOTION_DOT":2.261e-5,"MEAN_MOTION_DDOT":0},{"OBJECT_NAME":"COSMOS 2588","OBJECT_ID":"2025-109A","EPOCH":"2026-03-09T19:28:59.107008","MEAN_MOTION":15.29122656,"ECCENTRICITY":0.0005019,"INCLINATION":72.9704,"RA_OF_ASC_NODE":73.5401,"ARG_OF_PERICENTER":308.678,"MEAN_ANOMALY":51.3966,"EPHEMERIS_TYPE":0,"CLASSIFICATION_TYPE":"U","NORAD_CAT_ID":64095,"ELEMENT_SET_NO":999,"REV_AT_EPOCH":4442,"BSTAR":0.00032611,"MEAN_MOTION_DOT":9.169e-5,"MEAN_MOTION_DDOT":0}]
